ONEWEB-0721             
1 56725U 23068R   26178.20255854  .00000051  00000+0  88405-4 0  9993
2 56725  86.6762  82.3199 0001855  78.0854 282.0487 13.22470013159262
ONEWEB-0015             
1 61594U 24188A   26178.07545296  .00000380  00000+0  10358-2 0  9999
2 61594  87.8880  19.1242 0001972  71.3720 288.7622 13.11417920 85753
ONEWEB-0687             
1 61595U 24188B   26178.25436030  .00000006  00000+0 -17159-4 0  9999
2 61595  87.9125   3.8730 0002308  82.7503 277.3891 13.17648589 87227
ONEWEB-0688             
1 61596U 24188C   26178.20710666  .00000016  00000+0  80531-5 0  9990
2 61596  87.9127   3.8822 0002243  56.4849 303.6497 13.17649811 87214
ONEWEB-0689             
1 61597U 24188D   26178.26194420 -.00000157  00000+0 -47909-3 0  9999
2 61597  87.8894  19.0463 0002138  89.7518 270.3855 13.11414078 85776
ONEWEB-0690             
1 61598U 24188E   26178.27212027 -.00000497  00000+0 -14395-2 0  9994
2 61598  87.8888  19.0556 0001197  91.2289 268.8976 13.11415951 85957
ONEWEB-0691             
1 61599U 24188F   26178.26703262 -.00000384  00000+0 -11203-2 0  9990
2 61599  87.8898  18.9662 0002015  77.4742 282.6611 13.11416684 85803
ONEWEB-0692             
1 61600U 24188G   26178.28738415 -.00000396  00000+0 -11531-2 0  9990
2 61600  87.8880  19.0736 0002286 106.8054 253.3325 13.11417943 85798
ONEWEB-0693             
1 61601U 24188H   26178.21892183  .00000039  00000+0  66661-4 0  9995
2 61601  87.9123   3.8994 0001083  84.9915 275.1341 13.17649144 87207
ONEWEB-0695             
1 61602U 24188J   26178.26364721 -.00000177  00000+0 -53610-3 0  9997
2 61602  87.8879  19.0701 0002272  96.3743 263.7643 13.11415733 85785
ONEWEB-0697             
1 61603U 24188K   26178.06697450  .00000016  00000+0  93482-5 0  9997
2 61603  87.8883  19.0997 0002142 107.7929 252.3432 13.11418405 85742
ONEWEB-0698             
1 61604U 24188L   26178.27381449 -.00001139  00000+0 -32502-2 0  9991
2 61604  87.8878  19.0724 0001427 131.3814 228.7437 13.11419439 85791
ONEWEB-0699             
1 61605U 24188M   26178.14171918  .00000001  00000+0 -33678-4 0  9999
2 61605  87.8822  34.2829 0002009 104.6759 255.4591 13.10373137 84615
ONEWEB-0700             
1 61606U 24188N   26178.14342252  .00000254  00000+0  69039-3 0  9999
2 61606  87.8839  34.1932 0002229 100.4996 259.6383 13.10372884 84601
ONEWEB-0701             
1 61607U 24188P   26178.08401926 -.00000572  00000+0 -16763-2 0  9997
2 61607  87.8827  34.2945 0002062 110.0691 250.0659 13.10370513 84606
ONEWEB-0702             
1 61608U 24188Q   26178.09071725  .00000496  00000+0  13623-2 0  9994
2 61608  87.8898  19.0164 0002497 108.8343 251.3056 13.11415704 85788
ONEWEB-0704             
1 61609U 24188R   26178.14851053 -.00000034  00000+0 -13292-3 0  9994
2 61609  87.8828  34.2710 0002583 105.1372 255.0041 13.10373097 84596
ONEWEB-0705             
1 61610U 24188S   26178.15359500 -.00000206  00000+0 -62722-3 0  9990
2 61610  87.8829  34.2757 0002811  89.5807 270.5643 13.10369629 76768
ONEWEB-0706             
1 61611U 24188T   26178.13834502  .00000505  00000+0  14102-2 0  9997
2 61611  87.8825  34.2831 0002325  95.7886 264.3506 13.10372038 84681
ONEWEB-0707             
1 61612U 24188U   26178.14512000  .00000152  00000+0  39911-3 0  9999
2 61612  87.8829  34.2763 0002334  96.1313 264.0080 13.10373207 84627
ONEWEB-0708             
1 61613U 24188V   26178.08744411 -.00000585  00000+0 -17135-2 0  9991
2 61613  87.8821  34.3056 0002310  78.1850 281.9537 13.10376618 84596
