OBJECT_NAME,OBJECT_ID,EPOCH,MEAN_MOTION,ECCENTRICITY,INCLINATION,RA_OF_ASC_NODE,ARG_OF_PERICENTER,MEAN_ANOMALY,EPHEMERIS_TYPE,CLASSIFICATION_TYPE,NORAD_CAT_ID,ELEMENT_SET_NO,REV_AT_EPOCH,BSTAR,MEAN_MOTION_DOT,MEAN_MOTION_DDOT
ONEWEB-0721,2023-068R,2026-06-27T04:51:41.057856,13.22470013,.00018553,86.6762,82.3199,78.0854,282.0487,0,U,56725,999,15926,.88405362E-4,.51E-6,0
ONEWEB-0015,2024-188A,2026-06-27T01:48:39.135744,13.11417920,.00019727,87.8880,19.1242,71.3720,288.7622,0,U,61594,999,8575,.10357703E-2,.38E-5,0
ONEWEB-0687,2024-188B,2026-06-27T06:06:16.729920,13.17648589,.00023088,87.9125,3.8730,82.7503,277.3891,0,U,61595,999,8722,-.17159299E-4,.6E-7,0
ONEWEB-0688,2024-188C,2026-06-27T04:58:14.015424,13.17649811,.00022433,87.9127,3.8822,56.4849,303.6497,0,U,61596,999,8721,.8053071E-5,.16E-6,0
ONEWEB-0689,2024-188D,2026-06-27T06:17:11.978880,13.11414078,.00021385,87.8894,19.0463,89.7518,270.3855,0,U,61597,999,8577,-.47908909E-3,-.157E-5,0
ONEWEB-0690,2024-188E,2026-06-27T06:31:51.191328,13.11415951,.00011972,87.8888,19.0556,91.2289,268.8976,0,U,61598,999,8595,-.14395041E-2,-.497E-5,0
ONEWEB-0691,2024-188F,2026-06-27T06:24:31.618368,13.11416684,.00020152,87.8898,18.9662,77.4742,282.6611,0,U,61599,999,8580,-.11203141E-2,-.384E-5,0
ONEWEB-0692,2024-188G,2026-06-27T06:53:49.990560,13.11417943,.00022867,87.8880,19.0736,106.8054,253.3325,0,U,61600,999,8579,-.11531474E-2,-.396E-5,0
ONEWEB-0693,2024-188H,2026-06-27T05:15:14.846112,13.17649144,.00010838,87.9123,3.8994,84.9915,275.1341,0,U,61601,999,8720,.66661487E-4,.39E-6,0
ONEWEB-0695,2024-188J,2026-06-27T06:19:39.118944,13.11415733,.00022725,87.8879,19.0701,96.3743,263.7643,0,U,61602,999,8578,-.53610042E-3,-.177E-5,0
ONEWEB-0697,2024-188K,2026-06-27T01:36:26.596800,13.11418405,.00021428,87.8883,19.0997,107.7929,252.3432,0,U,61603,999,8574,.9348175E-5,.16E-6,0
ONEWEB-0698,2024-188L,2026-06-27T06:34:17.571936,13.11419439,.00014276,87.8878,19.0724,131.3814,228.7437,0,U,61604,999,8579,-.32502247E-2,-.1139E-4,0
ONEWEB-0699,2024-188M,2026-06-27T03:24:04.537152,13.10373137,.00020099,87.8822,34.2829,104.6759,255.4591,0,U,61605,999,8461,-.33677524E-4,.1E-7,0
ONEWEB-0700,2024-188N,2026-06-27T03:26:31.705728,13.10372884,.00022296,87.8839,34.1932,100.4996,259.6383,0,U,61606,999,8460,.69038507E-3,.254E-5,0
ONEWEB-0701,2024-188P,2026-06-27T02:00:59.264064,13.10370513,.00020625,87.8827,34.2945,110.0691,250.0659,0,U,61607,999,8460,-.16762738E-2,-.572E-5,0
ONEWEB-0702,2024-188Q,2026-06-27T02:10:37.970400,13.11415704,.00024976,87.8898,19.0164,108.8343,251.3056,0,U,61608,999,8578,.13622829E-2,.496E-5,0
ONEWEB-0704,2024-188R,2026-06-27T03:33:51.309792,13.10373097,.00025835,87.8828,34.2710,105.1372,255.0041,0,U,61609,999,8459,-.13292123E-3,-.34E-6,0
ONEWEB-0705,2024-188S,2026-06-27T03:41:10.608000,13.10369629,.00028116,87.8829,34.2757,89.5807,270.5643,0,U,61610,999,7676,-.62722405E-3,-.206E-5,0
ONEWEB-0706,2024-188T,2026-06-27T03:19:13.009728,13.10372038,.0002325,87.8825,34.2831,95.7886,264.3506,0,U,61611,999,8468,.14102385E-2,.505E-5,0
ONEWEB-0707,2024-188U,2026-06-27T03:28:58.368000,13.10373207,.00023344,87.8829,34.2763,96.1313,264.0080,0,U,61612,999,8462,.3991143E-3,.152E-5,0
ONEWEB-0708,2024-188V,2026-06-27T02:05:55.171104,13.10376618,.00023108,87.8821,34.3056,78.1850,281.9537,0,U,61613,999,8459,-.1713536E-2,-.585E-5,0
